$$SOE
2460728.500000000, A.D. 2025-Feb-22 00:00:00.0000, 1.381409767843130E+08, 2.357355623019506E+08, -9.025786922675040E+07,
2460735.500000000, A.D. 2025-Mar-01 00:00:00.0000, 1.273655684524985E+08, 2.419565707847634E+08, -8.641332683839436E+07,
2460742.500000000, A.D. 2025-Mar-08 00:00:00.0000, 1.163280360102228E+08, 2.476796192351342E+08, -8.239090887295450E+07,
2460749.500000000, A.D. 2025-Mar-15 00:00:00.0000, 1.050486092038208E+08, 2.528876227165861E+08, -7.819712910919614E+07,
2460756.500000000, A.D. 2025-Mar-22 00:00:00.0000, 9.354847143609209E+07, 2.575642702480766E+08, -7.383901375286454E+07,
2460763.500000000, A.D. 2025-Mar-29 00:00:00.0000, 8.184974243738127E+07, 2.616940983813050E+08, -6.932410420214948E+07,
2460770.500000000, A.D. 2025-Apr-05 00:00:00.0000, 6.997545733126333E+07, 2.652625676959238E+08, -6.466045787210006E+07,
2460777.500000000, A.D. 2025-Apr-12 00:00:00.0000, 5.794953978195588E+07, 2.682561419101035E+08, -5.985664666914916E+07,
2460784.500000000, A.D. 2025-Apr-19 00:00:00.0000, 4.579676866677874E+07, 2.706623682582264E+08, -5.492175294967777E+07,
2460791.500000000, A.D. 2025-Apr-26 00:00:00.0000, 3.354273820827908E+07, 2.724699584007331E+08, -4.986536278967641E+07,
2460798.500000000, A.D. 2025-May-03 00:00:00.0000, 2.121381138300498E+07, 2.736688692852002E+08, -4.469755636828804E+07,
2460805.500000000, A.D. 2025-May-10 00:00:00.0000, 8.837066388098754E+06, 2.742503832998951E+08, -3.942889527349046E+07,
2460812.500000000, A.D. 2025-May-17 00:00:00.0000, -3.559763985816743E+06, 2.742071869467130E+08, -3.407040656016776E+07,
2460819.500000000, A.D. 2025-May-24 00:00:00.0000, -1.594836002081634E+07, 2.735334471867035E+08, -2.863356342672320E+07,
2460826.500000000, A.D. 2025-May-31 00:00:00.0000, -2.829988940070950E+07, 2.722248849243020E+08, -2.313026239665030E+07,
2460833.500000000, A.D. 2025-Jun-07 00:00:00.0000, -4.058508855756918E+07, 2.702788459524835E+08, -1.757279677778943E+07,
2460840.500000000, A.D. 2025-Jun-14 00:00:00.0000, -5.277435324451384E+07, 2.676943677759261E+08, -1.197382618264376E+07,
2460847.500000000, A.D. 2025-Jun-21 00:00:00.0000, -6.483783685653296E+07, 2.644722380719689E+08, -6.346342470055997E+06,
2460854.500000000, A.D. 2025-Jun-28 00:00:00.0000, -7.674555302653664E+07, 2.606150455943940E+08, -7.036322842144221E+05,
2460861.500000000, A.D. 2025-Jul-05 00:00:00.0000, -8.846748353576016E+07, 2.561272247558919E+08, 4.940764033872575E+06,
2460868.500000000, A.D. 2025-Jul-12 00:00:00.0000, -9.997369212243916E+07, 2.510150921665664E+08, 1.057309706685837E+07,
2460875.500000000, A.D. 2025-Jul-19 00:00:00.0000, -1.112344432839855E+08, 2.452868736758511E+08, 1.617945621437487E+07,
2460882.500000000, A.D. 2025-Jul-26 00:00:00.0000, -1.222203250357225E+08, 2.389527210547895E+08, 2.174582058162449E+07,
2460889.500000000, A.D. 2025-Aug-02 00:00:00.0000, -1.329023746253793E+08, 2.320247176217220E+08, 2.725811254750097E+07,
2460896.500000000, A.D. 2025-Aug-09 00:00:00.0000, -1.432522061458382E+08, 2.245168721840701E+08, 3.270225364139438E+07,
2460903.500000000, A.D. 2025-Aug-16 00:00:00.0000, -1.532421388492324E+08, 2.164451007444829E+08, 3.806422229592687E+07,
2460910.500000000, A.D. 2025-Aug-23 00:00:00.0000, -1.628453246796428E+08, 2.078271956399373E+08, 4.333011298093693E+07,
2460917.500000000, A.D. 2025-Aug-30 00:00:00.0000, -1.720358734551442E+08, 1.986827826346840E+08, 4.848619623503854E+07,
2460924.500000000, A.D. 2025-Sep-06 00:00:00.0000, -1.807889758536294E+08, 1.890332669448828E+08, 5.351897926131324E+07,
2460931.500000000, A.D. 2025-Sep-13 00:00:00.0000, -1.890810246038713E+08, 1.789017658786203E+08, 5.841526647059590E+07,
2460938.500000000, A.D. 2025-Sep-20 00:00:00.0000, -1.968897293309129E+08, 1.683130267836982E+08, 6.316221895135781E+07,
2460945.500000000, A.D. 2025-Sep-27 00:00:00.0000, -2.041942227711370E+08, 1.572933339077859E+08, 6.774741242763948E+07,
2460952.500000000, A.D. 2025-Oct-04 00:00:00.0000, -2.109751592390425E+08, 1.458704054116105E+08, 7.215889335638115E+07,
2460959.500000000, A.D. 2025-Oct-11 00:00:00.0000, -2.172148046431957E+08, 1.340732804746825E+08, 7.638523255797946E+07,
2460966.500000000, A.D. 2025-Oct-18 00:00:00.0000, -2.228971167800743E+08, 1.219321972334941E+08, 8.041557577762699E+07,
2460973.500000000, A.D. 2025-Oct-25 00:00:00.0000, -2.280078149160309E+08, 1.094784626929203E+08, 8.423969063507341E+07,
2460980.500000000, A.D. 2025-Nov-01 00:00:00.0000, -2.325344379423842E+08, 9.674431585951301E+07, 8.784800948204932E+07,
2460987.500000000, A.D. 2025-Nov-08 00:00:00.0000, -2.364663905810017E+08, 8.376278539892930E+07, 9.123166776412474E+07,
2460994.500000000, A.D. 2025-Nov-15 00:00:00.0000, -2.397949771752631E+08, 7.056754317997290E+07, 9.438253755617675E+07,
2461001.500000000, A.D. 2025-Nov-22 00:00:00.0000, -2.425134225012150E+08, 5.719275539599919E+07, 9.729325600965522E+07,
2461008.500000000, A.D. 2025-Nov-29 00:00:00.0000, -2.446168797472286E+08, 4.367293387337412E+07, 9.995724863625591E+07,
2461015.500000000, A.D. 2025-Dec-06 00:00:00.0000, -2.461024281048647E+08, 3.004278887494479E+07, 1.023687475111303E+08,
2461022.500000000, A.D. 2025-Dec-13 00:00:00.0000, -2.469690598762234E+08, 1.633708142364496E+07, 1.045228040457482E+08,
2461029.500000000, A.D. 2025-Dec-20 00:00:00.0000, -2.472176540897354E+08, 2.590477503521957E+06, 1.064152961323350E+08,
2461036.500000000, A.D. 2025-Dec-27 00:00:00.0000, -2.468509383052756E+08, -1.116259203338976E+07, 1.080429300660804E+08,
2461043.500000000, A.D. 2026-Jan-03 00:00:00.0000, -2.458734408069699E+08, -2.488806535681793E+07, 1.094032374948135E+08,
2461050.500000000, A.D. 2026-Jan-10 00:00:00.0000, -2.442914339268637E+08, -3.855237702771661E+07, 1.104945675706402E+08,
2461057.500000000, A.D. 2026-Jan-17 00:00:00.0000, -2.421128691927629E+08, -5.212257806949534E+07, 1.113160745652498E+08,
2461064.500000000, A.D. 2026-Jan-24 00:00:00.0000, -2.393473052004309E+08, -6.556644799365038E+07, 1.118677012724568E+08,
2461071.500000000, A.D. 2026-Jan-31 00:00:00.0000, -2.360058292020954E+08, -7.885259821200168E+07, 1.121501585584696E+08,
2461078.500000000, A.D. 2026-Feb-07 00:00:00.0000, -2.321009733832232E+08, -9.195056646501151E+07, 1.121649014400299E+08,
2461085.500000000, A.D. 2026-Feb-14 00:00:00.0000, -2.276466266064377E+08, -1.048309019967560E+08, 1.119141020746344E+08,
2461092.500000000, A.D. 2026-Feb-21 00:00:00.0000, -2.226579422472055E+08, -1.174652407513834E+08, 1.114006200921946E+08,
2461099.500000000, A.D. 2026-Feb-28 00:00:00.0000, -2.171512441819622E+08, -1.298263694179180E+08, 1.106279708799331E+08,
2461106.500000000, A.D. 2026-Mar-07 00:00:00.0000, -2.111439339147641E+08, -1.418882803748461E+08, 1.096002922630401E+08,
2461113.500000000, A.D. 2026-Mar-14 00:00:00.0000, -2.046543969400253E+08, -1.536262200780990E+08, 1.083223095424182E+08,
2461120.500000000, A.D. 2026-Mar-21 00:00:00.0000, -1.977019073667059E+08, -1.650167282939993E+08, 1.067992993540156E+08,
2461127.500000000, A.D. 2026-Mar-28 00:00:00.0000, -1.903065335438932E+08, -1.760376675212058E+08, 1.050370529821220E+08,
2461134.500000000, A.D. 2026-Apr-04 00:00:00.0000, -1.824890459397179E+08, -1.866682440065995E+08, 1.030418394371257E+08,
2461141.500000000, A.D. 2026-Apr-11 00:00:00.0000, -1.742708275672583E+08, -1.968890212131754E+08, 1.008203685516507E+08,
2461148.500000000, A.D. 2026-Apr-18 00:00:00.0000, -1.656737872894748E+08, -2.066819262873150E+08, 9.837975436519523E+07,
2461155.500000000, A.D. 2026-Apr-25 00:00:00.0000, -1.567202763732855E+08, -2.160302500756949E+08, 9.572747905102760E+07,
2461162.500000000, A.D. 2026-May-02 00:00:00.0000, -1.474330086018773E+08, -2.249186412996484E+08, 9.287135760363179E+07,
2461169.500000000, A.D. 2026-May-09 00:00:00.0000, -1.378349840874234E+08, -2.333330955371197E+08, 8.981950346061260E+07,
2461176.500000000, A.D. 2026-May-16 00:00:00.0000, -1.279494166056830E+08, -2.412609394549142E+08, 8.658029519519743E+07,
2461183.500000000, A.D. 2026-May-23 00:00:00.0000, -1.177996645378491E+08, -2.486908098375654E+08, 8.316234448659170E+07,
2461190.500000000, A.D. 2026-May-30 00:00:00.0000, -1.074091675756702E+08, -2.556126276412114E+08, 7.957446568236731E+07,
2461197.500000000, A.D. 2026-Jun-06 00:00:00.0000, -9.680138952772684E+07, -2.620175708709048E+08, 7.582564678487748E+07,
2461204.500000000, A.D. 2026-Jun-13 00:00:00.0000, -8.599976353274384E+07, -2.678980465850640E+08, 7.192502159324786E+07,
2461211.500000000, A.D. 2026-Jun-20 00:00:00.0000, -7.502764011266653E+07, -2.732476595755770E+08, 6.788184332230167E+07,
2461218.500000000, A.D. 2026-Jun-27 00:00:00.0000, -6.390823966210590E+07, -2.780611785065233E+08, 6.370545984856632E+07,
2461225.500000000, A.D. 2026-Jul-04 00:00:00.0000, -5.266460924823299E+07, -2.823345006982012E+08, 5.940529052877526E+07,
2461232.500000000, A.D. 2026-Jul-11 00:00:00.0000, -4.131958332290402E+07, -2.860646160667481E+08, 5.499080455004515E+07,
2461239.500000000, A.D. 2026-Jul-18 00:00:00.0000, -2.989574809257565E+07, -2.892495705382240E+08, 5.047150078243305E+07,
2461246.500000000, A.D. 2026-Jul-25 00:00:00.0000, -1.841540934549561E+07, -2.918884292485391E+08, 4.585688909626950E+07,
2461253.500000000, A.D. 2026-Aug-01 00:00:00.0000, -6.900563505485075E+06, -2.939812398602022E+08, 4.115647308986901E+07,
2461260.500000000, A.D. 2026-Aug-08 00:00:00.0000, 4.627128487145858E+06, -2.955289962763444E+08, 3.637973414732663E+07,
2461267.500000000, A.D. 2026-Aug-15 00:00:00.0000, 1.614636507235148E+07, -2.965336025022931E+08, 3.153611675643808E+07,
2461274.500000000, A.D. 2026-Aug-22 00:00:00.0000, 2.763622518595335E+07, -2.969978355937961E+08, 2.663501518210949E+07,
2461281.500000000, A.D. 2026-Aug-29 00:00:00.0000, 3.907618452267519E+07, -2.969253092002040E+08, 2.168576152128620E+07,
2461288.500000000, A.D. 2026-Sep-05 00:00:00.0000, 5.044612930299871E+07, -2.963204407020359E+08, 1.669761464470983E+07,
2461295.500000000, A.D. 2026-Sep-12 00:00:00.0000, 6.172637020709201E+07, -2.951884195783843E+08, 1.167974994309314E+07,
$$EOE